[{"OBJECT_NAME":"SEEDS II (CO-66)","OBJECT_ID":"2008-021J","EPOCH":"2026-03-09T22:06:22.421376","MEAN_MOTION":15.29097236,"ECCENTRICITY":0.00014475,"INCLINATION":97.7519,"RA_OF_ASC_NODE":62.3611,"ARG_OF_PERICENTER":359.2618,"MEAN_ANOMALY":0.8619,"EPHEMERIS_TYPE":0,"CLASSIFICATION_TYPE":"U","NORAD_CAT_ID":32791,"ELEMENT_SET_NO":999,"REV_AT_EPOCH":97210,"BSTAR":0.00084213052,"MEAN_MOTION_DOT":0.00023758,"MEAN_MOTION_DDOT":0},{"OBJECT_NAME":"STARLINK-36409","OBJECT_ID":"2026-005C","EPOCH":"2026-03-09T11:38:31.155648","MEAN_MOTION":15.27606185,"ECCENTRICITY":0.00018205,"INCLINATION":42.9972,"RA_OF_ASC_NODE":239.2756,"ARG_OF_PERICENTER":274.16,"MEAN_ANOMALY":85.9044,"EPHEMERIS_TYPE":0,"CLASSIFICATION_TYPE":"U","NORAD_CAT_ID":67406,"ELEMENT_SET_NO":999,"REV_AT_EPOCH":866,"BSTAR":0.0015357532,"MEAN_MOTION_DOT":0.00042276,"MEAN_MOTION_DDOT":0}]
